OBJECT_NAME,OBJECT_ID,EPOCH,MEAN_MOTION,ECCENTRICITY,INCLINATION,RA_OF_ASC_NODE,ARG_OF_PERICENTER,MEAN_ANOMALY,EPHEMERIS_TYPE,CLASSIFICATION_TYPE,NORAD_CAT_ID,ELEMENT_SET_NO,REV_AT_EPOCH,BSTAR,MEAN_MOTION_DOT,MEAN_MOTION_DDOT
STARS (KUKAI),2009-002G,2026-06-06T15:34:33.798720,14.95675111,.000797,98.1540,104.5282,195.4498,164.6480,0,U,33498,999,93690,.42025E-3,.4615E-4,0
KKS-1 (KISEKI),2009-002H,2026-06-06T19:10:55.536096,14.83097275,.0007192,98.1193,80.0770,334.4433,25.6423,0,U,33499,999,93465,.1886E-3,.1481E-4,0
UK-DMC 2,2009-041C,2026-06-06T20:29:31.746624,14.76013613,.0001344,97.8829,293.0735,70.4961,289.6393,0,U,35683,999,90504,.10592E-3,.68E-5,0
OCEANSAT-2,2009-051A,2026-06-06T20:01:07.152384,13.99663517,.0014583,98.2323,145.7184,267.8097,92.1400,0,U,35931,999,87788,.12313E-3,.142E-5,0
SWISSCUBE,2009-051B,2026-06-05T11:15:38.778912,14.62458715,.00054307,98.4043,64.1532,246.3597,113.7034,0,U,35932,999,88744,.23506342E-3,.1141E-4,0
BEESAT-1,2009-051C,2026-06-06T20:11:56.592672,14.61703876,.0003901,98.3972,65.2066,258.2336,101.8427,0,U,35933,999,88767,.19376E-3,.916E-5,0
ITUPSAT1,2009-051E,2026-06-04T16:47:20.224032,14.60421767,.0006134,98.4056,62.2366,280.9538,79.0971,0,U,35935,999,88691,.20796E-3,.958E-5,0
DMSP 5D-3 F18 (USA 210),2009-057A,2026-06-06T19:35:47.611392,14.14890964,.0009888,98.9033,138.6084,282.5348,77.4719,0,U,35951,999,85812,.15268E-3,.25E-5,0
PROBA-2,2009-059B,2026-06-06T18:52:40.260576,14.54857997,.0012323,98.2451,341.2838,317.2726,42.7512,0,U,36037,999,88001,.58854E-4,.207E-5,0
YAOGAN-7,2009-069A,2026-06-06T14:17:16.757376,14.77999271,.0025983,98.0084,43.5272,74.3293,286.0781,0,U,36110,999,88806,.86021E-4,.571E-5,0
XIWANG-1 (HOPE-1),2009-072B,2026-06-06T19:58:04.971936,13.16440533,.0006778,100.4028,111.8301,257.6443,102.3911,0,U,36122,999,79164,.91931E-3,.307E-5,0
COSMOS 2463,2010-017A,2026-06-06T12:43:09.251616,13.71665075,.00367866,82.9609,257.5353,157.6992,213.3326,0,U,36519,999,80647,.59469892E-4,.69E-6,0
CARTOSAT-2B,2010-035A,2026-06-06T20:25:10.295040,14.78649575,.001035,97.9953,208.4660,219.3939,140.6520,0,U,36795,999,85832,.14921E-3,.1041E-4,0
TISAT 1,2010-035E,2026-06-06T15:55:06.826944,15.31307713,.0000107,98.0706,103.2819,46.3405,313.7844,0,U,36799,999,86609,.87699E-3,.26497E-3,0
YAOGAN-10,2010-038A,2026-06-06T20:29:26.052864,14.85318431,.00017,97.8979,181.3407,88.1708,35.6180,0,U,36834,999,85567,.2562E-3,.2148E-4,0
SHIJIAN-6 04B (SJ-6 04B),2010-051B,2026-06-06T21:05:14.057952,14.99290774,.0009413,97.8685,163.1843,346.5022,13.5947,0,U,37180,999,85413,.81303E-4,.931E-5,0
FENGYUN 3B,2010-059A,2026-06-06T20:37:40.274688,14.14839845,.0021396,98.9618,203.8301,213.9605,319.5841,0,U,37214,999,80596,.17713E-3,.297E-5,0
COSMO-SKYMED 4,2010-060A,2026-06-06T20:16:11.697312,14.82159918,.000142,97.8887,341.5941,82.4721,277.6653,0,U,37216,999,84303,.18899E-4,.98E-6,0
O/OREOS (USA 219),2010-062C,2026-06-05T21:04:28.196832,14.93695134,.00123709,71.9702,105.9546,87.8701,272.3886,0,U,37224,999,11495,.28689329E-3,.2979E-4,0
RESOURCESAT-2,2011-015A,2026-06-06T19:30:55.320192,14.21604259,.0010147,98.7645,225.3262,289.0159,70.9918,0,U,37387,999,78470,.59406E-4,.86E-6,0
YOUTHSAT,2011-015B,2026-06-06T17:17:51.575712,14.25626010,.0014895,98.3677,132.2471,17.5863,155.8429,0,U,37388,999,78614,.10762E-3,.214E-5,0
APRIZESAT 6,2011-044F,2026-06-05T12:23:27.282336,14.76898404,.00442385,98.2372,66.7773,122.3000,58.2477,0,U,37793,999,79542,.12179529E-3,.814E-5,0
JUGNU,2011-058B,2026-06-06T07:23:16.719360,14.13773989,.00185037,19.9622,14.5210,316.3264,216.4094,0,U,37839,999,75748,.96536503E-4,.452E-5,0
SRMSAT,2011-058D,2026-06-06T06:31:30.735264,14.11573396,.00119474,19.9704,125.5359,84.3565,18.6414,0,U,37841,999,75627,.65061068E-4,.385E-5,0
SUOMI NPP,2011-061A,2026-06-06T20:06:52.925184,14.19515279,.0002082,98.7951,98.7851,28.9933,331.1358,0,U,37849,999,75697,.61986E-4,.86E-6,0
YAOGAN-12,2011-066B,2026-06-06T20:14:21.258240,15.26472491,.000806,97.1151,196.8983,260.7455,99.2873,0,U,37875,999,81046,.32966E-3,.8538E-4,0
